NORAD_CAT_ID,OBJECT_NAME,OBJECT_TYPE,EPOCH,MEAN_MOTION,ECCENTRICITY,INCLINATION,RA_OF_ASC_NODE,ARG_OF_PERICENTER,MEAN_ANOMALY,BSTAR,MEAN_MOTION_DOT,MEAN_MOTION_DDOT,TLE_LINE0,TLE_LINE1,TLE_LINE2,SEMIMAJOR_AXIS,PERIOD,APOGEE,PERIGEE,DECAYED
54068.0,STARLINK-5222,PAYLOAD,2023-01-01 10:16:30,15.08836033,0.0001891,53.2173,166.0127,53.021,307.0955,6.618099999999999e-06,-1.83e-06,0.0,0 STARLINK-5222,1 54068U 22136T   23001.42813395 -.00000183  00000-0  66181-5 0  9998,2 54068  53.2173 166.0127 0001891  53.0210 307.0955 15.08836033 11232,6917.893,95.438,541.066,538.4490000000002,0.0
54068.0,STARLINK-5222,PAYLOAD,2023-01-01 16:38:03,15.08834249,0.0001994,53.2175,164.8232,52.2597,307.8575,-4.9075e-05,-1.069e-05,0.0,0 STARLINK-5222,1 54068U 22136T   23001.69309771 -.00001069  00000-0 -49075-4 0  9992,2 54068  53.2175 164.8232 0001994  52.2597 307.8575 15.08834249 11277,6917.898,95.438,541.1419999999998,538.384,0.0
54068.0,STARLINK-5222,PAYLOAD,2023-01-02 03:45:45,15.08843326,0.0001959,53.2173,162.7413,49.0386,311.0776,-2.8166e-05,-7.36e-06,0.0,0 STARLINK-5222,1 54068U 22136T   23002.15677125 -.00000736  00000-0 -28166-4 0  9993,2 54068  53.2173 162.7413 0001959  49.0386 311.0776 15.08843326 11821,6917.87,95.437,541.09,538.38,0.0
54068.0,STARLINK-5222,PAYLOAD,2023-01-02 13:18:03,15.08845513,0.0001899,53.2166,160.9563,45.9978,314.117,5.502e-05,5.88e-06,0.0,0 STARLINK-5222,1 54068U 22136T   23002.55420538  .00000588  00000-0  55020-4 0  9993,2 54068  53.2166 160.9563 0001899  45.9978 314.1170 15.08845513 11400,6917.864000000001,95.437,541.0419999999998,538.415,0.0
54068.0,STARLINK-5222,PAYLOAD,2023-01-02 16:28:49,15.0884382,0.0001956999999999,53.2168,160.3614,47.9394,312.1764,4.1192e-05,3.68e-06,0.0,0 STARLINK-5222,1 54068U 22136T   23002.68668693  .00000368  00000-0  41192-4 0  9994,2 54068  53.2168 160.3614 0001957  47.9394 312.1764 15.08843820 11420,6917.869000000002,95.437,541.0880000000002,538.38,0.0
54068.0,STARLINK-5222,PAYLOAD,2023-01-03 06:47:18,15.08837764,0.0002078,53.2179,157.6868,48.5413,311.5757,5.733e-07,-2.79e-06,0.0,0 STARLINK-5222,1 54068U 22136T   23003.28285342 -.00000279  00000-0  57330-6 0  9992,2 54068  53.2179 157.6868 0002078  48.5413 311.5757 15.08837764 11511,6917.887,95.438,541.19,538.315,0.0
54068.0,STARLINK-5222,PAYLOAD,2023-01-03 16:19:36,15.08839008,0.000194,53.2167,155.9014,47.5139,312.6017,0.00011101,1.479e-05,0.0,0 STARLINK-5222,1 54068U 22136T   23003.68028878  .00001479  00000-0  11101-3 0  9990,2 54068  53.2167 155.9014 0001940  47.5139 312.6017 15.08839008 12057,6917.8830000000025,95.438,541.09,538.406,0.0
54068.0,STARLINK-5222,PAYLOAD,2023-01-04 09:48:51,15.08841468,0.0002008,53.2164,152.6309,47.8616,312.2547,-8.8846e-06,-4.3e-06,0.0,0 STARLINK-5222,1 54068U 22136T   23004.40893133 -.00000430  00000-0 -88846-5 0  9995,2 54068  53.2164 152.6309 0002008  47.8616 312.2547 15.08841468 11689,6917.876,95.437,541.13,538.352,0.0
54068.0,STARLINK-5222,PAYLOAD,2023-01-04 16:10:23,15.08848401,0.0002004,53.2163,151.4419,47.2179,312.8981,4.9521e-05,5e-06,0.0,0 STARLINK-5222,1 54068U 22136T   23004.67388408  .00000500  00000-0  49521-4 0  9990,2 54068  53.2163 151.4419 0002004  47.2179 312.8981 15.08848401 11728,6917.855,95.437,541.106,538.3330000000002,0.0
54068.0,STARLINK-5222,PAYLOAD,2023-01-05 09:39:37,15.08848516,0.000205,53.2165,148.1706,50.1868,309.9304,6.4436e-05,7.38e-06,0.0,0 STARLINK-5222,1 54068U 22136T   23005.40252079  .00000738  00000-0  64436-4 0  9991,2 54068  53.2165 148.1706 0002050  50.1868 309.9304 15.08848516 12310,6917.854,95.437,541.138,538.3009999999998,0.0
54068.0,STARLINK-5222,PAYLOAD,2023-01-05 12:50:23,15.08850544,0.0002105,53.2161,147.5757,50.4626,309.6552,8.048300000000001e-05,9.93e-06,0.0,0 STARLINK-5222,1 54068U 22136T   23005.53499833  .00000993  00000-0  80483-4 0  9999,2 54068  53.2161 147.5757 0002105  50.4626 309.6552 15.08850544 11855,6917.848000000001,95.437,541.169,538.257,0.0
54068.0,STARLINK-5222,PAYLOAD,2023-01-05 16:01:09,15.08850383,0.0002044999999999,53.2163,146.9809,50.1481,309.9691,0.00010405,1.369e-05,0.0,0 STARLINK-5222,1 54068U 22136T   23005.66747678  .00001369  00000-0  10405-3 0  9990,2 54068  53.2163 146.9809 0002045  50.1481 309.9691 15.08850383 11877,6917.849,95.437,541.128,538.299,0.0
54068.0,STARLINK-5222,PAYLOAD,2023-01-06 09:30:25,15.08836473,0.0002045,53.2163,143.7096,43.683,316.4323,-8.6189e-05,-1.66e-05,0.0,0 STARLINK-5222,1 54068U 22136T   23006.39613304 -.00001660  00000-0 -86189-4 0  9998,2 54068  53.2163 143.7096 0002045  43.6830 316.4323 15.08836473 12460,6917.891,95.438,541.1709999999998,538.341,0.0
54068.0,STARLINK-5222,PAYLOAD,2023-01-07 09:21:12,15.08844149,0.0002077,53.2168,139.2487,43.9132,316.2025,-6.5115e-05,-1.325e-05,0.0,0 STARLINK-5222,1 54068U 22136T   23007.38972850 -.00001325  00000-0 -65115-4 0  9996,2 54068  53.2168 139.2487 0002077  43.9132 316.2025 15.08844149 12615,6917.868,95.437,541.17,538.2959999999998,0.0
54068.0,STARLINK-5222,PAYLOAD,2023-01-07 15:42:45,15.08839981,0.0002004,53.2172,138.0589,38.5816,321.5319,-9.4181e-05,-1.787e-05,0.0,0 STARLINK-5222,1 54068U 22136T   23007.65469218 -.00001787  00000-0 -94181-4 0  9992,2 54068  53.2172 138.0589 0002004  38.5816 321.5319 15.08839981 12173,6917.88,95.438,541.132,538.359,0.0
54068.0,STARLINK-5222,PAYLOAD,2023-01-08 01:15:04,15.08831955,0.0002035,53.2171,136.2749,34.6014,325.511,-1.889e-05,-5.89e-06,0.0,0 STARLINK-5222,1 54068U 22136T   23008.05213651 -.00000589  00000-0 -18890-4 0  9997,2 54068  53.2171 136.2749 0002035  34.6014 325.5110 15.08831955 12717,6917.905,95.438,541.178,538.362,0.0
54068.0,STARLINK-5222,PAYLOAD,2023-01-08 07:36:37,15.08835261,0.0002071,53.2161,135.0846,22.2419,337.8662,-1.2845e-05,-4.93e-06,0.0,0 STARLINK-5222,1 54068U 22136T   23008.31709700 -.00000493  00000-0 -12845-4 0  9999,2 54068  53.2161 135.0846 0002071  22.2419 337.8662 15.08835261 12276,6917.895,95.438,541.193,538.327,0.0
54068.0,STARLINK-5222,PAYLOAD,2023-01-08 17:08:55,15.08832673,0.0001911,53.2175,133.3018,32.1883,327.9226,9.2125e-05,1.178e-05,0.0,0 STARLINK-5222,1 54068U 22136T   23008.71453651  .00001178  00000-0  92125-4 0  9992,2 54068  53.2175 133.3018 0001911  32.1883 327.9226 15.08832673 12337,6917.903,95.438,541.09,538.446,0.0
54068.0,STARLINK-5222,PAYLOAD,2023-01-09 07:27:24,15.0883991,0.0002058,53.2174,130.6248,34.3954,325.7172,2.6576e-05,1.35e-06,0.0,0 STARLINK-5222,1 54068U 22136T   23009.31069645  .00000135  00000-0  26576-4 0  9994,2 54068  53.2174 130.6248 0002058  34.3954 325.7172 15.08839910 12424,6917.880999999999,95.438,541.169,538.322,0.0
54068.0,STARLINK-5222,PAYLOAD,2023-01-09 16:59:42,15.08845045,0.0002094,53.2174,128.841,35.4977,324.6154,8.492200000000001e-05,1.064e-05,0.0,0 STARLINK-5222,1 54068U 22136T   23009.70813118  .00001064  00000-0  84922-4 0  9990,2 54068  53.2174 128.8410 0002094  35.4977 324.6154 15.08845045 12964,6917.865,95.437,541.179,538.281,0.0
54068.0,STARLINK-5222,PAYLOAD,2023-01-10 13:39:44,15.088294400000002,0.0002055,53.2168,124.9747,39.1131,321.0009,-2.4871e-05,-6.84e-06,0.0,0 STARLINK-5222,1 54068U 22136T   23010.56926664 -.00000684  00000-0 -24871-4 0  9993,2 54068  53.2168 124.9747 0002055  39.1131 321.0009 15.08829440 13093,6917.913000000001,95.438,541.1990000000002,538.356,0.0
54068.0,STARLINK-5222,PAYLOAD,2023-01-11 13:30:30,15.08847886,0.0002485,53.2162,120.5179,34.3385,325.7767,9.3319e-05,1.197e-05,0.0,0 STARLINK-5222,1 54068U 22136T   23011.56285053  .00001197  00000-0  93319-4 0  9995,2 54068  53.2162 120.5179 0002485  34.3385 325.7767 15.08847886 13246,6917.856,95.437,541.44,538.002,0.0
54068.0,STARLINK-5222,PAYLOAD,2023-01-12 16:32:03,15.0883879,0.0002205,53.2164,115.4608,36.3037,323.8104,0.00015859,2.237e-05,0.0,0 STARLINK-5222,1 54068U 22136T   23012.68893014  .00002237  00000-0  15859-3 0  9999,2 54068  53.2164 115.4608 0002205  36.3037 323.8104 15.08838790 13411,6917.884,95.438,541.274,538.224,0.0
54068.0,STARLINK-5222,PAYLOAD,2023-01-13 13:12:07,15.08819138,0.0002157,53.2164,111.5962,35.8846,324.2291,-0.00019804,-3.437e-05,0.0,0 STARLINK-5222,1 54068U 22136T   23013.55008255 -.00003437  00000-0 -19804-3 0  9990,2 54068  53.2164 111.5962 0002157  35.8846 324.2291 15.08819138 13540,6917.944,95.439,541.3009999999999,538.317,0.0
54068.0,STARLINK-5222,PAYLOAD,2023-01-14 06:41:21,15.08824617,0.000204,53.2162,108.3238,37.1955,322.9178,-3.8124e-05,-8.95e-06,0.0,0 STARLINK-5222,1 54068U 22136T   23014.27871933 -.00000895  00000-0 -38124-4 0  9993,2 54068  53.2162 108.3238 0002040  37.1955 322.9178 15.08824617 13654,6917.927,95.439,541.2040000000001,538.381,0.0
54068.0,STARLINK-5222,PAYLOAD,2023-01-14 11:27:29,15.08842881,0.000202,53.2169,107.4318,39.4167,320.6972,0.00012732,1.739e-05,0.0,0 STARLINK-5222,1 54068U 22136T   23014.47742509  .00001739  00000-0  12732-3 0  9993,2 54068  53.2169 107.4318 0002020  39.4167 320.6972 15.08842881 13681,6917.871999999999,95.437,541.134,538.339,0.0
54068.0,STARLINK-5222,PAYLOAD,2023-01-14 22:35:12,15.08827436,0.0002483,53.217,105.35,51.1555,308.9658,0.0002234999999999,3.269e-05,0.0,0 STARLINK-5222,1 54068U 22136T   23014.94111686  .00003269  00000-0  22350-3 0  9998,2 54068  53.2170 105.3500 0002483  51.1555 308.9658 15.08827436 13755,6917.919,95.438,541.502,538.066,0.0
54068.0,STARLINK-5222,PAYLOAD,2023-01-15 04:56:45,15.0881985,0.0002126,53.2153,104.1619,50.8416,309.2765,0.00024321,3.583e-05,0.0,0 STARLINK-5222,1 54068U 22136T   23015.20608459  .00003583  00000-0  24321-3 0  9996,2 54068  53.2153 104.1619 0002126  50.8416 309.2765 15.08819850 13798,6917.941999999999,95.439,541.278,538.336,0.0
54068.0,STARLINK-5222,PAYLOAD,2023-01-15 08:07:32,15.08820049,0.0002049,53.2164,103.5671,47.8984,312.2182,0.00016605,2.354e-05,0.0,0 STARLINK-5222,1 54068U 22136T   23015.33856817  .00002354  00000-0  16605-3 0  9994,2 54068  53.2164 103.5671 0002049  47.8984 312.2182 15.08820049 13330,6917.941,95.439,541.224,538.389,0.0
